#aV2019  1  6  0  0  0.00000000      96 DD+AD WGS84 FIT  NGA
## 2035      0.00000000   900.00000000 58489 0.0000000000000
+   31     1  2  3  5  6  7  8  9 10 11 12 13 14 15 16 17 18
+         19 20 21 22 23 24 25 26 27 28 29 30 31 32  0  0  0
+          0  0  0  0  0  0  0  0  0  0  0  0  0  0  0  0  0
+          0  0  0  0  0  0  0  0  0  0  0  0  0  0  0  0  0
+          0  0  0  0  0  0  0  0  0  0  0  0  0  0  0  0  0
++         2  2  2  2  2  2  2  2  2  2  2  2  2  2  2  2  2
++         2  2  2  2  2  2  2  2  2  2  2  2  2  2  0  0  0
++         0  0  0  0  0  0  0  0  0  0  0  0  0  0  0  0  0
++         0  0  0  0  0  0  0  0  0  0  0  0  0  0  0  0  0
++         0  0  0  0  0  0  0  0  0  0  0  0  0  0  0  0  0
%c cc cc ccc ccc cccc cccc cccc cccc ccccc ccccc ccccc ccccc
%c cc cc ccc ccc cccc cccc cccc cccc ccccc ccccc ccccc ccccc
%f  0.0000000  0.000000000  0.00000000000  0.000000000000000
%f  0.0000000  0.000000000  0.00000000000  0.000000000000000
%i    0    0    0    0      0      0      0      0         0
%i    0    0    0    0      0      0      0      0         0
/*      NGA, ST. LOUIS,MO.                                  
/*   EPHEMERIS COMPUTED FROM 2 DAYS OF DATA                 
/*   EPOCHA v3 LONG-TERM PREDICTOR                          
/*   G1762 IERS2010 SATAF SATCOM                            
*  2019  1  6 13 45  0.00000000
P  1 -13322.846403  22508.241712  -3704.075178   -140.872536               P   P
V  1  -4772.061021   2122.097342  31791.048361     -0.061988                    
P  2  18903.285849  -9380.822381 -15409.845168   -105.898481               P   P
V  2  -9062.562497  18826.873602 -21946.865319     -0.102014                    
P  3  -9889.130975  13463.778002 -20670.555530    175.340911               P   P
V  3 -25944.555406  -3574.038439  10170.936195      0.027579                    
P  5  25457.535606  -3168.377549   7149.063628      0.704462               P   P
V  5   8952.501487   3570.055975 -29597.265994      0.001254                    
P  6  14861.284593   4392.183486 -21535.298351    302.207710               P   P
V  6 -15600.360183  22520.234861  -6140.307249     -0.074392                    
P  7  -1478.857658  21007.262324  16141.390216     56.733395               P   P
V  7 -13871.912650  14914.546665 -21451.694841     -0.071232                    
P  8 -10468.147657  12041.532858  21252.203569   -128.121558               P   P
V  8 -11974.270220 -24072.034979   7935.649382     -0.010653                    
P  9   6693.127963  24937.025237  -6262.137318    474.936178               P   P
V  9  -6025.678103  -5909.605503 -30212.494469     -0.043232                    
P 10 -20197.582384 -11283.918028  13260.755039    140.094403               P   P
V 10  16808.154250   -402.389662  25159.793683     -0.062703                    
P 11  -9427.349890  24065.141035   6065.901843   -679.029490               P   P
V 11  -2524.572502  -9032.927544  29090.011427      0.050185                    
P 12  13326.696319 -11314.086058 -20136.540190    278.548422               P   P
V 12  24623.155011   5081.845893  13750.419308     -0.030735                    
P 13  14558.199106  -3718.989763  21783.085944    -79.211876               P   P
V 13   8210.053040  26688.448876   -893.634788      0.013120                    
P 14 -16578.368878 -12827.551106 -16114.155029    -93.579465               P   P
V 14  -5302.250585 -20362.535706  21092.519822      0.005692                    
P 15   8201.625090 -15443.383774  19633.327218   -333.341724               P   P
V 15  14044.727776  21612.100458  11383.720695      0.015375                    
P 16 -25651.293729    266.398925   7539.460245    -11.085629               P   P
V 16  -9199.690937  -3373.088474 -30087.470357     -0.023565                    
P 17  14150.244146  20660.844677  -8596.736657     -8.479290               P   P
V 17   2323.424867  11365.552360  29626.358251      0.050317                    
P 18 -17444.643268  18821.661999   6060.445081     13.102233               P   P
V 18   1923.737516  -8721.207638  30390.621525      0.039880                    
P 19  16249.397124  12587.340299 -17051.126418   -366.185303               P   P
V 19   5401.968031  20431.461288  20687.424187      0.039573                    
P 20 -11608.598061 -14136.063249  19183.802531    520.818018               P   P
V 20  24652.832375  -1950.883599  13265.998841      0.005025                    
P 21  -2526.258482 -20096.277666  18031.804544   -274.022652               P   P
V 21  12862.590495 -17090.376369 -17979.748095      0.069558                    
P 22 -17447.777576  11518.405557 -16122.883793   -616.480178               P   P
V 22 -20927.151209  -3327.542724  20026.647223     -0.089951                    
P 23  -1440.592100  21767.928951 -14553.812581   -201.351881               P   P
V 23 -10753.730532 -16191.195791 -23084.227450      0.011227                    
P 24  15161.390421 -21543.698678   1286.425698    -60.407621               P   P
V 24   2160.002622   3584.628127  31436.606310     -0.000547                    
P 25    632.471485 -15066.235975 -22062.659582   -702.030124               P   P
V 25  27355.785321   2900.455538   -958.341064     -0.055483                    
P 26 -26272.737474  -3788.259369  -2419.856527     88.821596               P   P
V 26   3266.333241  -2639.484302 -31285.635171      0.106291                    
P 27 -15462.103027   1004.863986  21525.583272    -44.416075               P   P
V 27 -11004.293670 -25136.852040  -6432.015078     -0.063433                    
P 28  17553.344834  13612.565464  15116.364262    761.092754               P   P
V 28 -18036.851826  -2031.341986  23840.750979      0.012775                    
P 29  -2710.971941 -24747.053222  -9275.920451    299.273812               P   P
V 29   5859.020284  10321.013389 -29307.068783     -0.082737                    
P 30   8302.954968  14032.841990  20955.060780    -31.555636               P   P
V 30 -17239.798613  20367.521077  -6983.356565     -0.060086                    
P 31 -16934.514652  -1445.250961 -20506.474109     67.656034               P   P
V 31  15208.860093 -21039.511152 -10637.263643     -0.026285                    
P 32 -16468.197184 -18000.417620 -10586.797580   -286.817236               P   P
V 32  -3322.225310 -13297.551926  27575.021546      0.167115                    
EOF
